{"type": "FeatureCollection", "features": [ {"type": "Feature", "properties": {"norad_id": 40315, "name": "COSMOS 2501 (702K)", "group": "gnss", "lat": 39.8816493607887, "lon": -7.709669369594218, "alt_km": 19107.993296106146, "timestamp": "2025-12-13T15:35:12.349651+00:00", "meta": {"OBJECT_NAME": "COSMOS 2501 (702K)", "OBJECT_ID": "2014-075A", "EPOCH": "2025-12-12T01:35:26.425248", "MEAN_MOTION": 2.13101306, "ECCENTRICITY": 0.0020213, "INCLINATION": 63.6138, "RA_OF_ASC_NODE": 196.8484, "ARG_OF_PERICENTER": 204.6963, "MEAN_ANOMALY": 155.2753, "EPHEMERIS_TYPE": 0, "CLASSIFICATION_TYPE": "U", "NORAD_CAT_ID": 40315, "ELEMENT_SET_NO": 999, "REV_AT_EPOCH": 8586, "BSTAR": 0, "MEAN_MOTION_DOT": 6.5e-07, "MEAN_MOTION_DDOT": 0}, "tle": {"line1": "1 40315U 14075A   25346.06627807  .00000065  00000+0  00000+0 0  9995", "line2": "2 40315  63.6138 196.8484 0020213 204.6963 155.2753  2.13101306 85862"}}, "geometry": {"type": "Point", "coordinates": [-7.709669369594218, 39.8816493607887]}}, {"type": "Feature", "properties": {"norad_id": 40534, "name": "GPS BIIF-9  (PRN 26)", "group": "gnss", "lat": 35.48601036973949, "lon": -115.89835047402458, "alt_km": 19895.970319995835, "timestamp": "2025-12-13T15:35:12.349663+00:00", "meta": {"OBJECT_NAME": "GPS BIIF-9  (PRN 26)", "OBJECT_ID": "2015-013A", "EPOCH": "2025-12-11T14:12:34.875648", "MEAN_MOTION": 2.00562655, "ECCENTRICITY": 0.01070076, "INCLINATION": 53.1979, "RA_OF_ASC_NODE": 211.9377, "ARG_OF_PERICENTER": 38.4526, "MEAN_ANOMALY": 322.3807, "EPHEMERIS_TYPE": 0, "CLASSIFICATION_TYPE": "U", "NORAD_CAT_ID": 40534, "ELEMENT_SET_NO": 999, "REV_AT_EPOCH": 7806, "BSTAR": 0, "MEAN_MOTION_DOT": 2.2e-07, "MEAN_MOTION_DDOT": 0}, "tle": {"line1": "1 40534U 15013A   25345.59207032  .00000022  00000+0  00000+0 0  9995", "line2": "2 40534  53.1979 211.9377 0107007  38.4526 322.3807  2.00562655 78062"}}, "geometry": {"type": "Point", "coordinates": [-115.89835047402458, 35.48601036973949]}}, {"type": "Feature", "properties": {"norad_id": 40544, "name": "GSAT0203 (GALILEO 7)", "group": "gnss", "lat": -43.62321379387192, "lon": -154.80901442378786, "alt_km": 23211.525805391717, "timestamp": "2025-12-13T15:35:12.349674+00:00", "meta": {"OBJECT_NAME": "GSAT0203 (GALILEO 7)", "OBJECT_ID": "2015-017A", "EPOCH": "2025-12-11T12:08:22.810848", "MEAN_MOTION": 1.70475934, "ECCENTRICITY": 0.00065093, "INCLINATION": 56.8465, "RA_OF_ASC_NODE": 346.7135, "ARG_OF_PERICENTER": 271.8959, "MEAN_ANOMALY": 88.0466, "EPHEMERIS_TYPE": 0, "CLASSIFICATION_TYPE": "U", "NORAD_CAT_ID": 40544, "ELEMENT_SET_NO": 999, "REV_AT_EPOCH": 6600, "BSTAR": 0, "MEAN_MOTION_DOT": -8.8e-07, "MEAN_MOTION_DDOT": 0}, "tle": {"line1": "1 40544U 15017A   25345.50581957 -.00000088  00000+0  00000+0 0  9995", "line2": "2 40544  56.8465 346.7135 0006509 271.8959  88.0466  1.70475934 66007"}}, "geometry": {"type": "Point", "coordinates": [-154.80901442378786, -43.62321379387192]}}, {"type": "Feature", "properties": {"norad_id": 40545, "name": "GSAT0204 (GALILEO 8)", "group": "gnss", "lat": 55.187235482005676, "lon": 56.701879392217045, "alt_km": 23234.156904769225, "timestamp": "2025-12-13T15:35:12.349685+00:00", "meta": {"OBJECT_NAME": "GSAT0204 (GALILEO 8)", "OBJECT_ID": "2015-017B", "EPOCH": "2025-12-11T04:11:34.346112", "MEAN_MOTION": 1.70475574, "ECCENTRICITY": 0.0006249, "INCLINATION": 56.853, "RA_OF_ASC_NODE": 346.7403, "ARG_OF_PERICENTER": 262.765, "MEAN_ANOMALY": 97.1808, "EPHEMERIS_TYPE": 0, "CLASSIFICATION_TYPE": "U", "NORAD_CAT_ID": 40545, "ELEMENT_SET_NO": 999, "REV_AT_EPOCH": 2904, "BSTAR": 0, "MEAN_MOTION_DOT": -8.8e-07, "MEAN_MOTION_DDOT": 0}, "tle": {"line1": "1 40545U 15017B   25345.17470308 -.00000088  00000+0  00000+0 0  9996", "line2": "2 40545  56.8530 346.7403 0006249 262.7650  97.1808  1.70475574 29041"}}, "geometry": {"type": "Point", "coordinates": [56.701879392217045, 55.187235482005676]}}, {"type": "Feature", "properties": {"norad_id": 40549, "name": "BEIDOU-3S IGSO-1S (C31)", "group": "gnss", "lat": 44.720263838483746, "lon": 60.11636260828166, "alt_km": 35755.32437160185, "timestamp": "2025-12-13T15:35:12.349697+00:00", "meta": {"OBJECT_NAME": "BEIDOU-3S IGSO-1S (C31)", "OBJECT_ID": "2015-019A", "EPOCH": "2025-12-11T20:45:03.352032", "MEAN_MOTION": 1.00292963, "ECCENTRICITY": 0.0036964, "INCLINATION": 49.5542, "RA_OF_ASC_NODE": 297.7211, "ARG_OF_PERICENTER": 195.3449, "MEAN_ANOMALY": 352.9961, "EPHEMERIS_TYPE": 0, "CLASSIFICATION_TYPE": "U", "NORAD_CAT_ID": 40549, "ELEMENT_SET_NO": 999, "REV_AT_EPOCH": 3919, "BSTAR": 0, "MEAN_MOTION_DOT": -1.91e-06, "MEAN_MOTION_DDOT": 0}, "tle": {"line1": "1 40549U 15019A   25345.86462213 -.00000191  00000+0  00000+0 0  9999", "line2": "2 40549  49.5542 297.7211 0036964 195.3449 352.9961  1.00292963 39194"}}, "geometry": {"type": "Point", "coordinates": [60.11636260828166, 44.720263838483746]}}, {"type": "Feature", "properties": {"norad_id": 40730, "name": "GPS BIIF-10 (PRN 08)", "group": "gnss", "lat": -50.27340493576094, "lon": -145.68815044572682, "alt_km": 20227.207097929397, "timestamp": "2025-12-13T15:35:12.349711+00:00", "meta": {"OBJECT_NAME": "GPS BIIF-10 (PRN 08)", "OBJECT_ID": "2015-033A", "EPOCH": "2025-12-12T18:00:46.336320", "MEAN_MOTION": 2.00565613, "ECCENTRICITY": 0.01109707, "INCLINATION": 54.1306, "RA_OF_ASC_NODE": 274.7724, "ARG_OF_PERICENTER": 26.8075, "MEAN_ANOMALY": 333.7759, "EPHEMERIS_TYPE": 0, "CLASSIFICATION_TYPE": "U", "NORAD_CAT_ID": 40730, "ELEMENT_SET_NO": 999, "REV_AT_EPOCH": 7625, "BSTAR": 0, "MEAN_MOTION_DOT": -7.4e-07, "MEAN_MOTION_DDOT": 0}, "tle": {"line1": "1 40730U 15033A   25346.75053630 -.00000074  00000+0  00000+0 0  9995", "line2": "2 40730  54.1306 274.7724 0110970  26.8075 333.7759  2.00565613 76259"}}, "geometry": {"type": "Point", "coordinates": [-145.68815044572682, -50.27340493576094]}}, {"type": "Feature", "properties": {"norad_id": 40748, "name": "BEIDOU-3S M2S (C58)", "group": "gnss", "lat": 52.142527370262385, "lon": 12.517004854738138, "alt_km": 21555.660103537717, "timestamp": "2025-12-13T15:35:12.349723+00:00", "meta": {"OBJECT_NAME": "BEIDOU-3S M2S (C58)", "OBJECT_ID": "2015-037A", "EPOCH": "2025-12-11T22:15:26.437248", "MEAN_MOTION": 1.8622897, "ECCENTRICITY": 0.00123447, "INCLINATION": 55.0397, "RA_OF_ASC_NODE": 308.4912, "ARG_OF_PERICENTER": 267.8245, "MEAN_ANOMALY": 92.025, "EPHEMERIS_TYPE": 0, "CLASSIFICATION_TYPE": "U", "NORAD_CAT_ID": 40748, "ELEMENT_SET_NO": 999, "REV_AT_EPOCH": 7063, "BSTAR": 0, "MEAN_MOTION_DOT": -8.9e-07, "MEAN_MOTION_DDOT": 0}, "tle": {"line1": "1 40748U 15037A   25345.92738932 -.00000089  00000+0  00000+0 0  9997", "line2": "2 40748  55.0397 308.4912 0012344 267.8245  92.0250  1.86228970 70636"}}, "geometry": {"type": "Point", "coordinates": [12.517004854738138, 52.142527370262385]}}, {"type": "Feature", "properties": {"norad_id": 40749, "name": "BEIDOU-3S M1S (C57)", "group": "gnss", "lat": -53.739485422112914, "lon": -124.03485120067116, "alt_km": 21529.533488277124, "timestamp": "2025-12-13T15:35:12.349734+00:00", "meta": {"OBJECT_NAME": "BEIDOU-3S M1S (C57)", "OBJECT_ID": "2015-037B", "EPOCH": "2025-12-11T14:53:54.000096", "MEAN_MOTION": 1.86253918, "ECCENTRICITY": 0.00034406, "INCLINATION": 55.0364, "RA_OF_ASC_NODE": 308.4915, "ARG_OF_PERICENTER": 358.1692, "MEAN_ANOMALY": 1.8205, "EPHEMERIS_TYPE": 0, "CLASSIFICATION_TYPE": "U", "NORAD_CAT_ID": 40749, "ELEMENT_SET_NO": 999, "REV_AT_EPOCH": 7063, "BSTAR": 0, "MEAN_MOTION_DOT": -8.8e-07, "MEAN_MOTION_DDOT": 0}, "tle": {"line1": "1 40749U 15037B   25345.62076389 -.00000088  00000+0  00000+0 0  9995", "line2": "2 40749  55.0364 308.4915 0003440 358.1692   1.8205  1.86253918 70639"}}, "geometry": {"type": "Point", "coordinates": [-124.03485120067116, -53.739485422112914]}}, {"type": "Feature", "properties": {"norad_id": 40889, "name": "GSAT0205 (GALILEO 9)", "group": "gnss", "lat": -32.481514001860226, "lon": 73.19969041049121, "alt_km": 23243.84745305353, "timestamp": "2025-12-13T15:35:12.349745+00:00", "meta": {"OBJECT_NAME": "GSAT0205 (GALILEO 9)", "OBJECT_ID": "2015-045A", "EPOCH": "2025-12-10T08:33:32.148576", "MEAN_MOTION": 1.7047308, "ECCENTRICITY": 0.0005904, "INCLINATION": 55.0041, "RA_OF_ASC_NODE": 226.8241, "ARG_OF_PERICENTER": 38.7722, "MEAN_ANOMALY": 321.3515, "EPHEMERIS_TYPE": 0, "CLASSIFICATION_TYPE": "U", "NORAD_CAT_ID": 40889, "ELEMENT_SET_NO": 999, "REV_AT_EPOCH": 6379, "BSTAR": 0, "MEAN_MOTION_DOT": 9e-08, "MEAN_MOTION_DDOT": 0}, "tle": {"line1": "1 40889U 15045A   25344.35662209  .00000009  00000+0  00000+0 0  9992", "line2": "2 40889  55.0041 226.8241 0005904  38.7722 321.3515  1.70473080 63793"}}, "geometry": {"type": "Point", "coordinates": [73.19969041049121, -32.481514001860226]}}, {"type": "Feature", "properties": {"norad_id": 40890, "name": "GSAT0206 (GALILEO 10)", "group": "gnss", "lat": 54.76391771354835, "lon": -51.01060759176088, "alt_km": 23208.3942736784, "timestamp": "2025-12-13T15:35:12.349758+00:00", "meta": {"OBJECT_NAME": "GSAT0206 (GALILEO 10)", "OBJECT_ID": "2015-045B", "EPOCH": "2025-12-11T03:55:56.933760", "MEAN_MOTION": 1.70473071, "ECCENTRICITY": 0.00038554, "INCLINATION": 55.0029, "RA_OF_ASC_NODE": 226.7968, "ARG_OF_PERICENTER": 36.8797, "MEAN_ANOMALY": 323.2259, "EPHEMERIS_TYPE": 0, "CLASSIFICATION_TYPE": "U", "NORAD_CAT_ID": 40890, "ELEMENT_SET_NO": 999, "REV_AT_EPOCH": 6383, "BSTAR": 0, "MEAN_MOTION_DOT": 9e-08, "MEAN_MOTION_DDOT": 0}, "tle": {"line1": "1 40890U 15045B   25345.16385340  .00000009  00000+0  00000+0 0  9992", "line2": "2 40890  55.0029 226.7968 0003855  36.8797 323.2259  1.70473071 63831"}}, "geometry": {"type": "Point", "coordinates": [-51.01060759176088, 54.76391771354835]}}]}